start=new Date('2021-10-21T00:00:00.000Z').valueOf();
sats=[{"RA_OF_ASC_NODE":"132.9438","LAUNCH_DATE":"2020-03-18","TIME_SYSTEM":"UTC","SITE":"AFETR","REV_AT_EPOCH":"8872","CLASSIFICATION_TYPE":"U","TLE_LINE1":"1 45387U 20019AD  21293.87942032  .00000747  00000-0  69033-4 0  9994","MEAN_ANOMALY":"285.4489","RCS_SIZE":"LARGE","BSTAR":"0.00006903300000","EPOCH":"2021-10-20T21:06:21.915648","APOAPSIS":"548.488","OBJECT_NAME":"STARLINK-1274","ECCENTRICITY":"0.00018490","MEAN_MOTION_DDOT":"0.0000000000000","ELEMENT_SET_NO":"999","NORAD_CAT_ID":"45387","OBJECT_TYPE":"PAYLOAD","FILE":"3175135","MEAN_ELEMENT_THEORY":"SGP4","MEAN_MOTION":"15.06401901","OBJECT_ID":"2020-019AD","CENTER_NAME":"EARTH","PERIOD":"95.592","REF_FRAME":"TEME","TLE_LINE2":"2 45387  53.0533 132.9438 0001849  74.6704 285.4489 15.06401901 88720","INCLINATION":"53.0533","DECAY_DATE":null,"GP_ID":"187753715","EPHEMERIS_TYPE":"0","PERIAPSIS":"545.927","COUNTRY_CODE":"US","MEAN_MOTION_DOT":"0.00000747","ARG_OF_PERICENTER":"74.6704","SEMIMAJOR_AXIS":"6925.343"},{"ELEMENT_SET_NO":"999","ECCENTRICITY":"0.00015660","MEAN_MOTION_DDOT":"0.0000000000000","APOAPSIS":"548.321","OBJECT_NAME":"STARLINK-1280","EPOCH":"2021-10-20T20:21:12.879936","OBJECT_TYPE":"PAYLOAD","NORAD_CAT_ID":"45388","MEAN_ELEMENT_THEORY":"SGP4","FILE":"3175135","TIME_SYSTEM":"UTC","RA_OF_ASC_NODE":"153.0760","LAUNCH_DATE":"2020-03-18","CLASSIFICATION_TYPE":"U","REV_AT_EPOCH":"8843","SITE":"AFETR","MEAN_ANOMALY":"282.3632","TLE_LINE1":"1 45388U 20019AE  21293.84806574 -.00000929  00000-0 -43467-4 0  9999","BSTAR":"-0.00004346700000","RCS_SIZE":"LARGE","PERIAPSIS":"546.152","GP_ID":"187753965","EPHEMERIS_TYPE":"0","MEAN_MOTION_DOT":"-0.00000929","COUNTRY_CODE":"US","ARG_OF_PERICENTER":"77.7533","SEMIMAJOR_AXIS":"6925.372","OBJECT_ID":"2020-019AE","MEAN_MOTION":"15.06392474","PERIOD":"95.593","CENTER_NAME":"EARTH","DECAY_DATE":null,"INCLINATION":"53.0535","TLE_LINE2":"2 45388  53.0535 153.0760 0001566  77.7533 282.3632 15.06392474 88433","REF_FRAME":"TEME"},{"TIME_SYSTEM":"UTC","LAUNCH_DATE":"2020-03-18","RA_OF_ASC_NODE":"133.1588","SITE":"AFETR","REV_AT_EPOCH":"8872","CLASSIFICATION_TYPE":"U","TLE_LINE1":"1 45389U 20019AF  21293.82780377 -.00001216  00000-0 -62753-4 0  9999","MEAN_ANOMALY":"277.2036","RCS_SIZE":"LARGE","BSTAR":"-0.00006275300000","APOAPSIS":"548.484","OBJECT_NAME":"STARLINK-1283","EPOCH":"2021-10-20T19:52:02.245728","ELEMENT_SET_NO":"999","MEAN_MOTION_DDOT":"0.0000000000000","ECCENTRICITY":"0.00017970","OBJECT_TYPE":"PAYLOAD","NORAD_CAT_ID":"45389","FILE":"3175135","MEAN_ELEMENT_THEORY":"SGP4","MEAN_MOTION":"15.06391675","OBJECT_ID":"2020-019AF","PERIOD":"95.593","CENTER_NAME":"EARTH","TLE_LINE2":"2 45389  53.0529 133.1588 0001797  82.9157 277.2036 15.06391675 88725","REF_FRAME":"TEME","DECAY_DATE":null,"INCLINATION":"53.0529","PERIAPSIS":"545.995","GP_ID":"187755217","EPHEMERIS_TYPE":"0","COUNTRY_CODE":"US","MEAN_MOTION_DOT":"-0.00001216","ARG_OF_PERICENTER":"82.9157","SEMIMAJOR_AXIS":"6925.374"},{"APOAPSIS":"548.531","OBJECT_NAME":"STARLINK-1284","EPOCH":"2021-10-20T20:50:26.474208","ELEMENT_SET_NO":"999","MEAN_MOTION_DDOT":"0.0000000000000","ECCENTRICITY":"0.00019260","FILE":"3175135","MEAN_ELEMENT_THEORY":"SGP4","OBJECT_TYPE":"PAYLOAD","NORAD_CAT_ID":"45390","SITE":"AFETR","CLASSIFICATION_TYPE":"U","REV_AT_EPOCH":"8872","TIME_SYSTEM":"UTC","RA_OF_ASC_NODE":"132.9939","LAUNCH_DATE":"2020-03-18","RCS_SIZE":"LARGE","BSTAR":"0.00010431000000","TLE_LINE1":"1 45390U 20019AG  21293.86836197  .00001273  00000-0  10431-3 0  9993","MEAN_ANOMALY":"279.4796","COUNTRY_CODE":"US","MEAN_MOTION_DOT":"0.00001273","PERIAPSIS":"545.864","GP_ID":"187755457","EPHEMERIS_TYPE":"0","SEMIMAJOR_AXIS":"6925.333","ARG_OF_PERICENTER":"80.6410","CENTER_NAME":"EARTH","PERIOD":"95.592","MEAN_MOTION":"15.06405199","OBJECT_ID":"2020-019AG","TLE_LINE2":"2 45390  53.0545 132.9939 0001926  80.6410 279.4796 15.06405199 88727","REF_FRAME":"TEME","DECAY_DATE":null,"INCLINATION":"53.0545"},{"MEAN_MOTION_DDOT":"0.0000000000000","ECCENTRICITY":"0.00019530","ELEMENT_SET_NO":"999","EPOCH":"2021-10-20T21:11:39.244704","APOAPSIS":"548.567","OBJECT_NAME":"STARLINK-1289","NORAD_CAT_ID":"45391","OBJECT_TYPE":"PAYLOAD","MEAN_ELEMENT_THEORY":"SGP4","FILE":"3175135","LAUNCH_DATE":"2020-03-18","RA_OF_ASC_NODE":"132.9217","TIME_SYSTEM":"UTC","CLASSIFICATION_TYPE":"U","REV_AT_EPOCH":"8845","SITE":"AFETR","MEAN_ANOMALY":"280.9288","TLE_LINE1":"1 45391U 20019AH  21293.88309311  .00000799  00000-0  72532-4 0  9992","BSTAR":"0.00007253200000","RCS_SIZE":"LARGE","GP_ID":"187754216","EPHEMERIS_TYPE":"0","PERIAPSIS":"545.862","MEAN_MOTION_DOT":"0.00000799","COUNTRY_CODE":"US","ARG_OF_PERICENTER":"79.1921","SEMIMAJOR_AXIS":"6925.349","OBJECT_ID":"2020-019AH","MEAN_MOTION":"15.06399786","CENTER_NAME":"EARTH","PERIOD":"95.592","INCLINATION":"53.0539","DECAY_DATE":null,"REF_FRAME":"TEME","TLE_LINE2":"2 45391  53.0539 132.9217 0001953  79.1921 280.9288 15.06399786 88457"},{"ELEMENT_SET_NO":"999","ECCENTRICITY":"0.00024490","MEAN_MOTION_DDOT":"0.0000000000000","APOAPSIS":"544.291","OBJECT_NAME":"STARLINK-1290","EPOCH":"2021-10-20T20:31:24.323232","MEAN_ELEMENT_THEORY":"SGP4","FILE":"3175135","OBJECT_TYPE":"PAYLOAD","NORAD_CAT_ID":"45392","CLASSIFICATION_TYPE":"U","REV_AT_EPOCH":"8846","SITE":"AFETR","TIME_SYSTEM":"UTC","RA_OF_ASC_NODE":"129.8910","LAUNCH_DATE":"2020-03-18","BSTAR":"0.00016074000000","RCS_SIZE":"LARGE","MEAN_ANOMALY":"291.5279","TLE_LINE1":"1 45392U 20019AJ  21293.85514263  .00002209  00000-0  16074-3 0  9990","MEAN_MOTION_DOT":"0.00002209","COUNTRY_CODE":"US","PERIAPSIS":"540.901","GP_ID":"187754466","EPHEMERIS_TYPE":"0","SEMIMAJOR_AXIS":"6920.731","ARG_OF_PERICENTER":"68.5971","CENTER_NAME":"EARTH","PERIOD":"95.497","OBJECT_ID":"2020-019AJ","MEAN_MOTION":"15.07907903","DECAY_DATE":null,"INCLINATION":"52.9927","TLE_LINE2":"2 45392  52.9927 129.8910 0002449  68.5971 291.5279 15.07907903 88466","REF_FRAME":"TEME"},{"OBJECT_NAME":"STARLINK-1291","APOAPSIS":"548.700","EPOCH":"2021-10-20T20:18:34.927776","ELEMENT_SET_NO":"999","ECCENTRICITY":"0.00021430","MEAN_MOTION_DDOT":"0.0000000000000","OBJECT_TYPE":"PAYLOAD","NORAD_CAT_ID":"45393","FILE":"3175135","MEAN_ELEMENT_THEORY":"SGP4","TIME_SYSTEM":"UTC","RA_OF_ASC_NODE":"133.0922","LAUNCH_DATE":"2020-03-18","SITE":"AFETR","REV_AT_EPOCH":"8848","CLASSIFICATION_TYPE":"U","TLE_LINE1":"1 45393U 20019AK  21293.84623759  .00002400  00000-0  17997-3 0  9999","MEAN_ANOMALY":"259.3767","RCS_SIZE":"LARGE","BSTAR":"0.00017997000000","PERIAPSIS":"545.731","EPHEMERIS_TYPE":"0","GP_ID":"187754717","COUNTRY_CODE":"US","MEAN_MOTION_DOT":"0.00002400","ARG_OF_PERICENTER":"100.7464","SEMIMAJOR_AXIS":"6925.351","MEAN_MOTION":"15.06399342","OBJECT_ID":"2020-019AK","PERIOD":"95.592","CENTER_NAME":"EARTH","TLE_LINE2":"2 45393  53.0521 133.0922 0002143 100.7464 259.3767 15.06399342 88483","REF_FRAME":"TEME","DECAY_DATE":null,"INCLINATION":"53.0521"},{"NORAD_CAT_ID":"45394","OBJECT_TYPE":"PAYLOAD","FILE":"3175135","MEAN_ELEMENT_THEORY":"SGP4","EPOCH":"2021-10-20T21:01:01.283520","OBJECT_NAME":"STARLINK-1292","APOAPSIS":"548.340","ECCENTRICITY":"0.00016650","MEAN_MOTION_DDOT":"0.0000000000000","ELEMENT_SET_NO":"999","TLE_LINE1":"1 45394U 20019AL  21293.87570930 -.00001063  00000-0 -52482-4 0  9990","MEAN_ANOMALY":"291.2976","RCS_SIZE":"LARGE","BSTAR":"-0.00005248200000","LAUNCH_DATE":"2020-03-18","RA_OF_ASC_NODE":"132.9588","TIME_SYSTEM":"UTC","SITE":"AFETR","CLASSIFICATION_TYPE":"U","REV_AT_EPOCH":"8846","ARG_OF_PERICENTER":"68.8191","SEMIMAJOR_AXIS":"6925.322","GP_ID":"187754957","EPHEMERIS_TYPE":"0","PERIAPSIS":"546.034","COUNTRY_CODE":"US","MEAN_MOTION_DOT":"-0.00001063","REF_FRAME":"TEME","TLE_LINE2":"2 45394  53.0537 132.9588 0001665  68.8191 291.2976 15.06408655 88469","INCLINATION":"53.0537","DECAY_DATE":null,"MEAN_MOTION":"15.06408655","OBJECT_ID":"2020-019AL","PERIOD":"95.592","CENTER_NAME":"EARTH"},{"ELEMENT_SET_NO":"999","MEAN_MOTION_DDOT":"0.0000000000000","ECCENTRICITY":"0.00019810","APOAPSIS":"548.606","OBJECT_NAME":"STARLINK-1297","EPOCH":"2021-10-20T20:07:57.464256","MEAN_ELEMENT_THEORY":"SGP4","FILE":"3175135","OBJECT_TYPE":"PAYLOAD","NORAD_CAT_ID":"45395","CLASSIFICATION_TYPE":"U","REV_AT_EPOCH":"8790","SITE":"AFETR","TIME_SYSTEM":"UTC","LAUNCH_DATE":"2020-03-18","RA_OF_ASC_NODE":"133.1296","BSTAR":"-0.00006233900000","RCS_SIZE":"LARGE","MEAN_ANOMALY":"294.3598","TLE_LINE1":"1 45395U 20019AM  21293.83885954 -.00001210  00000-0 -62339-4 0  9998","MEAN_MOTION_DOT":"-0.00001210","COUNTRY_CODE":"US","PERIAPSIS":"545.862","GP_ID":"187753716","EPHEMERIS_TYPE":"0","SEMIMAJOR_AXIS":"6925.369","ARG_OF_PERICENTER":"65.7597","CENTER_NAME":"EARTH","PERIOD":"95.593","OBJECT_ID":"2020-019AM","MEAN_MOTION":"15.06393237","DECAY_DATE":null,"INCLINATION":"53.0541","TLE_LINE2":"2 45395  53.0541 133.1296 0001981  65.7597 294.3598 15.06393237 87902","REF_FRAME":"TEME"},{"RA_OF_ASC_NODE":"133.2053","LAUNCH_DATE":"2020-03-18","TIME_SYSTEM":"UTC","REV_AT_EPOCH":"8843","CLASSIFICATION_TYPE":"U","SITE":"AFETR","MEAN_ANOMALY":"276.9940","TLE_LINE1":"1 45396U 20019AN  21293.82042121 -.00000747  00000-0 -31253-4 0  9994","BSTAR":"-0.00003125300000","RCS_SIZE":"LARGE","MEAN_MOTION_DDOT":"0.0000000000000","ECCENTRICITY":"0.00019220","ELEMENT_SET_NO":"999","EPOCH":"2021-10-20T19:41:24.392544","APOAPSIS":"548.549","OBJECT_NAME":"STARLINK-1303","NORAD_CAT_ID":"45396","OBJECT_TYPE":"PAYLOAD","MEAN_ELEMENT_THEORY":"SGP4","FILE":"3175135","OBJECT_ID":"2020-019AN","MEAN_MOTION":"15.06398407","PERIOD":"95.592","CENTER_NAME":"EARTH","INCLINATION":"53.0531","DECAY_DATE":null,"REF_FRAME":"TEME","TLE_LINE2":"2 45396  53.0531 133.2053 0001922  83.1267 276.9940 15.06398407 88437","GP_ID":"187753966","EPHEMERIS_TYPE":"0","PERIAPSIS":"545.887","MEAN_MOTION_DOT":"-0.00000747","COUNTRY_CODE":"US","ARG_OF_PERICENTER":"83.1267","SEMIMAJOR_AXIS":"6925.353"}];
